OBJECT_NAME,OBJECT_ID,EPOCH,MEAN_MOTION,ECCENTRICITY,INCLINATION,RA_OF_ASC_NODE,ARG_OF_PERICENTER,MEAN_ANOMALY,EPHEMERIS_TYPE,CLASSIFICATION_TYPE,NORAD_CAT_ID,ELEMENT_SET_NO,REV_AT_EPOCH,BSTAR,MEAN_MOTION_DOT,MEAN_MOTION_DDOT
LEMUR-1,2014-033AL,2026-07-20T08:54:41.222880,14.85345442,.00473346,97.7916,350.4484,330.7304,29.1260,0,U,40044,999,65039,.96430192E-4,.79E-5,0
LEMUR-2-GREENBERG,2017-042N,2026-07-19T22:40:49.332288,15.32243019,.00074481,97.3842,21.4445,239.5677,120.4829,0,U,42837,999,49340,.30659889E-3,.9476E-4,0
LEMUR-2-ANDIS,2017-042P,2026-07-20T00:38:02.866848,15.36045973,.00074525,97.3691,21.8287,238.1835,121.8684,0,U,42838,999,49349,.35312306E-3,.12331E-3,0
LEMUR-2-MONSON,2017-042Q,2026-07-20T06:54:00.768096,15.28834700,.0005637,97.4103,21.7059,223.9790,136.1002,0,U,42839,999,49322,.29034872E-3,.8064E-4,0
LEMUR-2-FURIAUS,2017-042R,2026-07-20T06:54:30.112992,15.31229856,.00057228,97.3789,19.6669,307.6330,52.4391,0,U,42840,999,49327,.32045388E-3,.9596E-4,0
LEMUR-2-PETERG,2017-042S,2026-07-19T10:38:36.824928,15.35124199,.00036319,97.4004,25.5577,202.2189,157.8897,0,U,42841,999,49338,.31942597E-3,.10813E-3,0
LEMUR-2-DEMBITZ,2017-042T,2026-07-20T07:23:03.091488,15.31203517,.00052052,97.3838,22.7340,250.6054,109.4625,0,U,42842,999,49341,.31242144E-3,.9345E-4,0
LEMUR-2-ZACHARY,2017-042W,2026-07-20T14:15:19.309536,15.53056883,.00029502,97.3580,34.0094,221.1889,138.9142,0,U,42845,999,49438,.53982293E-3,.33727E-3,0
LEMUR-2-AMANDA-SVANTE,2021-034B,2026-07-20T11:12:14.063616,15.36159024,.00048072,97.5740,280.6758,131.8944,228.2710,0,U,48269,999,28616,.54804739E-3,.19257E-3,0
LEMUR-2-SPECIAL-K,2021-034F,2026-07-20T05:22:04.371744,15.76546996,.00061991,97.5619,290.7675,211.4467,148.6428,0,U,48273,999,28687,.12052863E-2,.195176E-2,0
LEMUR-2-EMBRIONOVIS,2023-084AQ,2026-07-20T09:12:56.519136,15.38313202,.00087238,97.6331,346.8847,187.4663,172.6453,0,U,56970,999,17278,.21304571E-3,.7966E-4,0
LEMUR-2-DEVERILL-M-T,2023-100F,2026-07-20T13:18:48.915648,15.41255376,.00047795,99.4446,249.9928,274.4220,85.6474,0,U,57391,999,16638,.40191132E-3,.16616E-3,0
LEMUR-2-BASS,2023-174D,2026-07-20T12:43:06.568032,15.44104425,.00073055,97.3838,286.7321,62.2719,297.9269,0,U,58259,999,15050,.238609E-3,.10836E-3,0
LEMUR-2-JK0903EM1407,2023-174CJ,2026-07-20T12:44:24.076608,15.53247144,.00030572,97.3914,292.9803,11.2865,348.8456,0,U,58336,999,15090,.28620397E-3,.17923E-3,0
LEMUR-2-MJR092620,2023-174CN,2026-07-20T10:32:04.402176,15.45979879,.00048023,97.3966,292.1076,10.7766,349.3585,0,U,58340,999,15078,.23423221E-3,.11333E-3,0
LEMUR-2-NIMBUS2000,2024-022A,2026-07-20T07:59:18.248640,15.41247209,.0008203,97.4083,51.7757,10.9156,349.2267,0,U,58899,999,13737,.30980263E-3,.12813E-3,0
LEMUR-2-VALHALLA,2024-022B,2026-07-20T03:28:48.441504,15.40578281,.00087005,97.4081,51.5501,7.0064,353.1302,0,U,58900,999,13734,.21984998E-3,.8865E-4,0
LEMUR-2-CAEL,2024-022E,2026-07-20T03:01:44.537952,15.41954913,.00066356,97.4057,52.5269,350.9129,9.1997,0,U,58903,999,13741,.23614378E-3,.9971E-4,0
LEMUR-2-JOHNNYTRUONG,2024-043BA,2026-07-20T09:42:41.761728,15.62840820,.00037677,97.5401,355.2329,77.9959,282.1721,0,U,59146,999,13322,.31377639E-3,.28208E-3,0
LEMUR-2-TOMATOKECHUP,2024-149D,2026-07-20T04:39:12.570336,15.36643654,.00034332,97.3786,283.3381,112.8522,247.3085,0,U,60471,999,10723,.17624334E-3,.6224E-4,0
LEMUR-2-STELLA,2024-149BT,2026-07-20T04:02:12.499872,15.12431400,.00013375,97.6728,283.7815,122.8476,237.2883,0,U,60533,999,10548,.38020904E-3,.6541E-4,0
LEMUR-2-MARHISYAM,2024-149BW,2026-07-20T05:27:14.695488,15.11832183,.00022436,97.6871,284.3226,62.3352,297.8105,0,U,60536,999,10547,.3039657E-3,.5129E-4,0
LEMUR-2-AHMED-ASRAR,2024-149DN,2026-07-20T05:29:16.875456,15.13369685,.00016646,97.6997,286.5472,183.3029,176.8191,0,U,60576,999,10556,.33459961E-3,.5901E-4,0
LEMUR-2-LLOYD,2024-149DP,2026-07-20T04:27:20.740608,15.09799638,.00042372,97.6730,282.3442,58.5473,301.6170,0,U,60577,999,10537,.34655099E-3,.5536E-4,0
LEMUR-2-SQUIRRELCOMM,2024-149DQ,2026-07-20T04:21:58.548960,15.07474059,.00040091,97.6698,281.9951,302.4234,57.6606,0,U,60578,999,10537,.23019896E-3,.3428E-4,0
LEMUR-2-SIERRINI,2024-149DR,2026-07-20T04:34:46.971552,15.11569293,.00060598,97.6828,283.9422,78.0984,282.0925,0,U,60579,999,10544,.37010447E-3,.6216E-4,0
LEMUR-2-WILSON,2025-009CP,2026-07-20T11:43:18.906528,14.95287872,.00016273,97.7016,279.3692,292.9678,67.1371,0,U,62694,999,8233,.12661035E-3,.1338E-4,0
LEMUR-2-STAR-FOX,2025-009CR,2026-07-20T10:52:50.926944,15.02880549,.00016377,97.6899,282.8228,21.3130,338.8163,0,U,62696,999,8255,.32329936E-3,.4276E-4,0
LEMUR-2-ARIANNA,2025-009CU,2026-07-20T04:27:07.471296,15.02882036,.00019638,97.6839,282.3053,31.8397,328.2946,0,U,62699,999,8251,.33038174E-3,.4371E-4,0
LEMUR-2-ALISIA,2025-009DB,2026-07-20T05:21:35.786304,15.03216172,.00048609,97.6960,283.1779,115.6171,244.5557,0,U,62706,999,10512,.30040418E-3,.4005E-4,0
